{"type": "FeatureCollection", "features": [ {"type": "Feature", "properties": {"norad_id": 66805, "name": "STARLINK-36049", "group": "last-30-days", "lat": -12.86195727432199, "lon": -118.5526125127755, "alt_km": 306.7641912381323, "timestamp": "2025-12-12T03:50:51.178179+00:00", "meta": {"OBJECT_NAME": "STARLINK-36049", "OBJECT_ID": "2025-278Q", "EPOCH": "2025-12-11T14:00:01.999872", "MEAN_MOTION": 15.90218071, "ECCENTRICITY": 0.00020117, "INCLINATION": 42.9979, "RA_OF_ASC_NODE": 259.2089, "ARG_OF_PERICENTER": 262.6745, "MEAN_ANOMALY": 12.8841, "EPHEMERIS_TYPE": 0, "CLASSIFICATION_TYPE": "U", "NORAD_CAT_ID": 66805, "ELEMENT_SET_NO": 999, "REV_AT_EPOCH": 277, "BSTAR": -0.0043909709, "MEAN_MOTION_DOT": -0.01206407, "MEAN_MOTION_DDOT": 0}, "tle": {"line1": "1 66805U 25278Q   25345.58335648 -.01206407  00000+0 -43910-2 0  9990", "line2": "2 66805  42.9979 259.2089 0002011 262.6745  12.8841 15.90218071  2772"}}, "geometry": {"type": "Point", "coordinates": [-118.5526125127755, -12.86195727432199]}}, {"type": "Feature", "properties": {"norad_id": 66806, "name": "STARLINK-36069", "group": "last-30-days", "lat": -14.502428436804081, "lon": -120.47834707888894, "alt_km": 306.9642650740798, "timestamp": "2025-12-12T03:50:51.178189+00:00", "meta": {"OBJECT_NAME": "STARLINK-36069", "OBJECT_ID": "2025-278R", "EPOCH": "2025-12-11T14:00:01.999872", "MEAN_MOTION": 15.90192099, "ECCENTRICITY": 0.0001993, "INCLINATION": 42.9981, "RA_OF_ASC_NODE": 259.2153, "ARG_OF_PERICENTER": 261.0106, "MEAN_ANOMALY": 12.0985, "EPHEMERIS_TYPE": 0, "CLASSIFICATION_TYPE": "U", "NORAD_CAT_ID": 66806, "ELEMENT_SET_NO": 999, "REV_AT_EPOCH": 256, "BSTAR": -0.0043695945, "MEAN_MOTION_DOT": -0.01199871, "MEAN_MOTION_DDOT": 0}, "tle": {"line1": "1 66806U 25278R   25345.58335648 -.01199871  00000+0 -43696-2 0  9998", "line2": "2 66806  42.9981 259.2153 0001993 261.0106  12.0985 15.90192099  2569"}}, "geometry": {"type": "Point", "coordinates": [-120.47834707888894, -14.502428436804081]}}, {"type": "Feature", "properties": {"norad_id": 66807, "name": "STARLINK-36000", "group": "last-30-days", "lat": -9.828887220756341, "lon": -115.09467941965612, "alt_km": 306.45317376598723, "timestamp": "2025-12-12T03:50:51.178201+00:00", "meta": {"OBJECT_NAME": "STARLINK-36000", "OBJECT_ID": "2025-278S", "EPOCH": "2025-12-11T14:00:01.999872", "MEAN_MOTION": 15.90274272, "ECCENTRICITY": 0.00020325, "INCLINATION": 42.998, "RA_OF_ASC_NODE": 259.1978, "ARG_OF_PERICENTER": 262.1929, "MEAN_ANOMALY": 17.8182, "EPHEMERIS_TYPE": 0, "CLASSIFICATION_TYPE": "U", "NORAD_CAT_ID": 66807, "ELEMENT_SET_NO": 999, "REV_AT_EPOCH": 283, "BSTAR": -0.0044111545, "MEAN_MOTION_DOT": -0.01214317, "MEAN_MOTION_DDOT": 0}, "tle": {"line1": "1 66807U 25278S   25345.58335648 -.01214317  00000+0 -44112-2 0  9996", "line2": "2 66807  42.9980 259.1978 0002032 262.1929  17.8182 15.90274272  2839"}}, "geometry": {"type": "Point", "coordinates": [-115.09467941965612, -9.828887220756341]}}, {"type": "Feature", "properties": {"norad_id": 66808, "name": "STARLINK-36071", "group": "last-30-days", "lat": -8.377289171567053, "lon": -113.47814170131515, "alt_km": 306.3849764880533, "timestamp": "2025-12-12T03:50:51.178213+00:00", "meta": {"OBJECT_NAME": "STARLINK-36071", "OBJECT_ID": "2025-278T", "EPOCH": "2025-12-11T14:00:01.999872", "MEAN_MOTION": 15.90302143, "ECCENTRICITY": 0.00019376, "INCLINATION": 42.9981, "RA_OF_ASC_NODE": 259.1922, "ARG_OF_PERICENTER": 259.4675, "MEAN_ANOMALY": 22.6548, "EPHEMERIS_TYPE": 0, "CLASSIFICATION_TYPE": "U", "NORAD_CAT_ID": 66808, "ELEMENT_SET_NO": 999, "REV_AT_EPOCH": 277, "BSTAR": -0.0044223603, "MEAN_MOTION_DOT": -0.01242544, "MEAN_MOTION_DDOT": 0}, "tle": {"line1": "1 66808U 25278T   25345.58335648 -.01242544  00000+0 -44224-2 0  9994", "line2": "2 66808  42.9981 259.1922 0001937 259.4675  22.6548 15.90302143  2772"}}, "geometry": {"type": "Point", "coordinates": [-113.47814170131515, -8.377289171567053]}}, {"type": "Feature", "properties": {"norad_id": 66809, "name": "STARLINK-35979", "group": "last-30-days", "lat": -3.255830579200975, "lon": -107.90388471997208, "alt_km": 305.8388253140174, "timestamp": "2025-12-12T03:50:51.178225+00:00", "meta": {"OBJECT_NAME": "STARLINK-35979", "OBJECT_ID": "2025-278U", "EPOCH": "2025-12-11T14:00:01.999872", "MEAN_MOTION": 15.90383651, "ECCENTRICITY": 0.00021181, "INCLINATION": 42.998, "RA_OF_ASC_NODE": 259.1735, "ARG_OF_PERICENTER": 259.4387, "MEAN_ANOMALY": 30.1028, "EPHEMERIS_TYPE": 0, "CLASSIFICATION_TYPE": "U", "NORAD_CAT_ID": 66809, "ELEMENT_SET_NO": 999, "REV_AT_EPOCH": 277, "BSTAR": -0.0044849433, "MEAN_MOTION_DOT": -0.01263012, "MEAN_MOTION_DDOT": 0}, "tle": {"line1": "1 66809U 25278U   25345.58335648 -.01263012  00000+0 -44849-2 0  9991", "line2": "2 66809  42.9980 259.1735 0002118 259.4387  30.1028 15.90383651  2776"}}, "geometry": {"type": "Point", "coordinates": [-107.90388471997208, -3.255830579200975]}}, {"type": "Feature", "properties": {"norad_id": 66810, "name": "STARLINK-36046", "group": "last-30-days", "lat": -6.6414211934093235, "lon": -111.56935164119822, "alt_km": 306.2212853334886, "timestamp": "2025-12-12T03:50:51.178235+00:00", "meta": {"OBJECT_NAME": "STARLINK-36046", "OBJECT_ID": "2025-278V", "EPOCH": "2025-12-11T14:00:01.999872", "MEAN_MOTION": 15.9033193, "ECCENTRICITY": 0.00020136, "INCLINATION": 42.9982, "RA_OF_ASC_NODE": 259.1862, "ARG_OF_PERICENTER": 259.0354, "MEAN_ANOMALY": 25.6111, "EPHEMERIS_TYPE": 0, "CLASSIFICATION_TYPE": "U", "NORAD_CAT_ID": 66810, "ELEMENT_SET_NO": 999, "REV_AT_EPOCH": 254, "BSTAR": -0.0044556347, "MEAN_MOTION_DOT": -0.01252621, "MEAN_MOTION_DDOT": 0}, "tle": {"line1": "1 66810U 25278V   25345.58335648 -.01252621  00000+0 -44556-2 0  9992", "line2": "2 66810  42.9982 259.1862 0002013 259.0354  25.6111 15.90331930  2545"}}, "geometry": {"type": "Point", "coordinates": [-111.56935164119822, -6.6414211934093235]}}, {"type": "Feature", "properties": {"norad_id": 66811, "name": "STARLINK-36045", "group": "last-30-days", "lat": -4.871350924744526, "lon": -109.64537588817299, "alt_km": 305.9238110736296, "timestamp": "2025-12-12T03:50:51.178245+00:00", "meta": {"OBJECT_NAME": "STARLINK-36045", "OBJECT_ID": "2025-278W", "EPOCH": "2025-12-11T14:00:01.999872", "MEAN_MOTION": 15.90357443, "ECCENTRICITY": 0.0001966, "INCLINATION": 42.9982, "RA_OF_ASC_NODE": 259.1797, "ARG_OF_PERICENTER": 262.6351, "MEAN_ANOMALY": 24.5804, "EPHEMERIS_TYPE": 0, "CLASSIFICATION_TYPE": "U", "NORAD_CAT_ID": 66811, "ELEMENT_SET_NO": 999, "REV_AT_EPOCH": 277, "BSTAR": -0.0044755648, "MEAN_MOTION_DOT": -0.01259038, "MEAN_MOTION_DDOT": 0}, "tle": {"line1": "1 66811U 25278W   25345.58335648 -.01259038  00000+0 -44756-2 0  9994", "line2": "2 66811  42.9982 259.1797 0001966 262.6351  24.5804 15.90357443  2775"}}, "geometry": {"type": "Point", "coordinates": [-109.64537588817299, -4.871350924744526]}}, {"type": "Feature", "properties": {"norad_id": 66812, "name": "STARLINK-36054", "group": "last-30-days", "lat": -1.829010868297009, "lon": -106.372800521635, "alt_km": 305.5457352287094, "timestamp": "2025-12-12T03:50:51.178259+00:00", "meta": {"OBJECT_NAME": "STARLINK-36054", "OBJECT_ID": "2025-278X", "EPOCH": "2025-12-11T14:00:01.999872", "MEAN_MOTION": 15.90414647, "ECCENTRICITY": 0.00019615, "INCLINATION": 42.9982, "RA_OF_ASC_NODE": 259.1685, "ARG_OF_PERICENTER": 262.461, "MEAN_ANOMALY": 29.1188, "EPHEMERIS_TYPE": 0, "CLASSIFICATION_TYPE": "U", "NORAD_CAT_ID": 66812, "ELEMENT_SET_NO": 999, "REV_AT_EPOCH": 277, "BSTAR": -0.0044932896, "MEAN_MOTION_DOT": -0.01266786, "MEAN_MOTION_DDOT": 0}, "tle": {"line1": "1 66812U 25278X   25345.58335648 -.01266786  00000+0 -44933-2 0  9990", "line2": "2 66812  42.9982 259.1685 0001961 262.4610  29.1188 15.90414647  2779"}}, "geometry": {"type": "Point", "coordinates": [-106.372800521635, -1.829010868297009]}}, {"type": "Feature", "properties": {"norad_id": 66813, "name": "STARLINK-36042", "group": "last-30-days", "lat": -0.5064627865341105, "lon": -104.95743436518141, "alt_km": 305.3701492859509, "timestamp": "2025-12-12T03:50:51.178270+00:00", "meta": {"OBJECT_NAME": "STARLINK-36042", "OBJECT_ID": "2025-278Y", "EPOCH": "2025-12-11T14:00:01.999872", "MEAN_MOTION": 15.90446544, "ECCENTRICITY": 0.00020678, "INCLINATION": 42.9981, "RA_OF_ASC_NODE": 259.1636, "ARG_OF_PERICENTER": 262.1167, "MEAN_ANOMALY": 31.3413, "EPHEMERIS_TYPE": 0, "CLASSIFICATION_TYPE": "U", "NORAD_CAT_ID": 66813, "ELEMENT_SET_NO": 999, "REV_AT_EPOCH": 277, "BSTAR": -0.0045010205, "MEAN_MOTION_DOT": -0.01270659, "MEAN_MOTION_DDOT": 0}, "tle": {"line1": "1 66813U 25278Y   25345.58335648 -.01270659  00000+0 -45010-2 0  9992", "line2": "2 66813  42.9981 259.1636 0002067 262.1167  31.3413 15.90446544  2774"}}, "geometry": {"type": "Point", "coordinates": [-104.95743436518141, -0.5064627865341105]}}, {"type": "Feature", "properties": {"norad_id": 66814, "name": "STARLINK-35984", "group": "last-30-days", "lat": 9.994391151292453, "lon": -93.55116367476126, "alt_km": 304.1744176590055, "timestamp": "2025-12-12T03:50:51.178283+00:00", "meta": {"OBJECT_NAME": "STARLINK-35984", "OBJECT_ID": "2025-278Z", "EPOCH": "2025-12-11T14:00:01.999872", "MEAN_MOTION": 15.90586497, "ECCENTRICITY": 0.0001988, "INCLINATION": 42.9979, "RA_OF_ASC_NODE": 259.1247, "ARG_OF_PERICENTER": 259.3166, "MEAN_ANOMALY": 49.3971, "EPHEMERIS_TYPE": 0, "CLASSIFICATION_TYPE": "U", "NORAD_CAT_ID": 66814, "ELEMENT_SET_NO": 999, "REV_AT_EPOCH": 286, "BSTAR": -0.0046256751, "MEAN_MOTION_DOT": -0.01310074, "MEAN_MOTION_DDOT": 0}, "tle": {"line1": "1 66814U 25278Z   25345.58335648 -.01310074  00000+0 -46257-2 0  9993", "line2": "2 66814  42.9979 259.1247 0001988 259.3166  49.3971 15.90586497  2868"}}, "geometry": {"type": "Point", "coordinates": [-93.55116367476126, 9.994391151292453]}}]}